OBJECT_NAME,OBJECT_ID,EPOCH,MEAN_MOTION,ECCENTRICITY,INCLINATION,RA_OF_ASC_NODE,ARG_OF_PERICENTER,MEAN_ANOMALY,EPHEMERIS_TYPE,CLASSIFICATION_TYPE,NORAD_CAT_ID,ELEMENT_SET_NO,REV_AT_EPOCH,BSTAR,MEAN_MOTION_DOT,MEAN_MOTION_DDOT
STARLINK-33905,2025-094T,2026-07-20T09:16:04.898784,14.98347984,.0003863,69.9994,259.7310,271.5235,88.5482,0,U,63881,999,6708,.40453963E-3,.474E-4,0
STARLINK-34003,2025-094U,2026-07-20T10:54:03.121920,15.44775484,.00035765,70.0002,206.6391,271.5442,88.5332,0,U,63882,999,6841,.40184751E-3,.1876E-3,0
STARLINK-33968,2025-094V,2026-07-20T10:34:28.133760,14.98336247,.00039674,69.9998,259.9177,266.4939,93.5767,0,U,63883,999,6708,.21932641E-3,.2525E-4,0
STARLINK-33943,2025-094W,2026-07-20T10:46:12.811296,14.98335964,.0004004,70.0000,259.5480,266.1274,93.9428,0,U,63884,999,6709,.20046164E-3,.23E-4,0
STARLINK-33858,2025-094X,2026-07-20T09:46:08.493600,14.98336153,.00039247,69.9997,259.8002,267.9663,92.1046,0,U,63885,999,6708,.14558403E-3,.1645E-4,0
STARLINK-33885,2025-094Y,2026-07-20T10:58:14.019744,14.98336995,.00039639,69.9996,259.5720,268.0534,92.0171,0,U,63886,999,6709,.19761147E-3,.2266E-4,0
STARLINK-33904,2025-094Z,2026-07-20T09:16:19.877088,14.98334174,.0003415,69.9999,259.7269,268.6475,91.4293,0,U,63887,999,6708,.1511192E-3,.1711E-4,0
STARLINK-33981,2025-094AA,2026-07-20T08:34:18.751872,14.98334575,.00036332,69.9994,260.0256,267.2228,92.8516,0,U,63888,999,6707,.23363818E-3,.2696E-4,0
STARLINK-33738,2025-094AB,2026-07-20T09:52:23.390112,14.98334194,.00039175,69.9997,259.7900,266.9619,93.1092,0,U,63889,999,6730,.11417551E-3,.127E-4,0
STARLINK-34116,2025-095A,2026-07-20T12:57:44.636544,15.27580383,.00011713,42.9989,146.1152,272.0267,88.0451,0,U,63890,999,6810,.22720523E-3,.5995E-4,0
STARLINK-34123,2025-095B,2026-07-20T05:27:18.910080,15.27584204,.00008465,43.0023,148.0739,275.1657,84.9098,0,U,63891,999,6805,.24290189E-3,.6429E-4,0
STARLINK-33972,2025-095D,2026-07-20T04:55:53.222304,15.27590624,.00013895,43.0001,147.9016,266.4779,93.5914,0,U,63893,999,6805,.41377594E-3,.11145E-3,0
STARLINK-33973,2025-095E,2026-07-20T05:38:11.976576,15.27585030,.00012351,43.0025,147.2629,278.8076,81.2636,0,U,63894,999,6806,.18000438E-3,.4695E-4,0
STARLINK-34119,2025-095F,2026-07-20T03:42:03.242880,15.27581040,.00011261,42.9994,148.3756,276.0190,84.0534,0,U,63895,999,6804,.9665397E-4,.2399E-4,0
STARLINK-34143,2025-095G,2026-07-20T04:39:11.369376,15.27599125,.00014483,43.0011,147.8132,272.1479,87.9207,0,U,63896,999,6805,-.77478071E-4,-.2395E-4,0
STARLINK-33957,2025-095H,2026-07-20T13:12:32.771520,15.27581190,.0000728,42.9997,146.1923,269.8446,90.2322,0,U,63897,999,6809,.43461136E-3,.11717E-3,0
STARLINK-34120,2025-095J,2026-07-20T13:23:26.085984,15.27576725,.00009409,43.0019,145.3854,275.9529,84.1215,0,U,63898,999,6811,.26998058E-3,.7174E-4,0
STARLINK-34134,2025-095K,2026-07-20T05:01:25.676544,15.27583572,.00009994,42.9995,147.9296,269.0804,90.9933,0,U,63899,999,6805,.34150166E-3,.9148E-4,0
STARLINK-34118,2025-095L,2026-07-20T13:01:26.522976,15.27582158,.00008209,42.9975,146.1317,277.2720,82.8039,0,U,63900,999,6810,.16863493E-3,.4382E-4,0
STARLINK-34125,2025-095M,2026-07-20T04:50:18.554496,15.27605312,.00009986,43.0003,147.8706,268.3824,91.6914,0,U,63901,999,6804,.31989371E-3,.8558E-4,0
STARLINK-33955,2025-095N,2026-07-19T23:25:16.718880,15.27581081,.00010862,43.0016,148.7560,259.2204,100.8525,0,U,63902,999,6801,.74780094E-4,.1796E-4,0
STARLINK-34097,2025-095P,2026-07-20T04:35:30.138720,15.27584132,.00017047,43.0039,147.7894,262.3429,97.7229,0,U,63903,999,6804,.22297436E-3,.5879E-4,0
STARLINK-34092,2025-095Q,2026-07-20T05:18:03.721824,15.27582850,.00006667,43.0006,148.0161,269.6835,90.3941,0,U,63904,999,6804,.28437164E-3,.7572E-4,0
STARLINK-34114,2025-095R,2026-07-20T05:29:09.818304,15.27586611,.00010775,43.0016,148.0811,270.6683,89.4046,0,U,63905,999,6804,.17493742E-3,.4556E-4,0
STARLINK-33770,2025-095S,2026-07-20T05:54:51.608160,15.27583509,.00013096,43.0020,147.3453,269.1962,90.8740,0,U,63906,999,6805,.28305342E-3,.7536E-4,0
STARLINK-34106,2025-095T,2026-07-20T05:49:18.308928,15.27578889,.00014141,43.0024,147.3126,270.8482,89.2208,0,U,63907,999,6805,.14001233E-3,.3592E-4,0
STARLINK-34083,2025-095U,2026-07-20T13:14:25.101888,15.27595953,.00015368,43.0013,146.2011,256.9775,103.0905,0,U,63908,999,6809,.66112925E-3,.17984E-3,0
STARLINK-34066,2025-095V,2026-07-20T05:03:15.625728,15.27588493,.00007578,42.9965,147.9360,258.6626,101.4140,0,U,63909,999,6804,.52755306E-3,.14287E-3,0
STARLINK-34071,2025-095W,2026-07-20T13:03:17.688672,15.27578295,.00006129,42.9991,146.1398,266.9811,93.0971,0,U,63910,999,6809,.23159144E-3,.6116E-4,0
STARLINK-34038,2025-095X,2026-07-20T06:26:18.755232,15.27589084,.0001065,43.0010,147.5101,262.8422,97.2309,0,U,63911,999,6805,.29591203E-3,.7892E-4,0
