STARLINK-33905          
1 63881U 25094T   26201.38616781  .00004740  00000+0  40454-3 0  9991
2 63881  69.9994 259.7310 0003863 271.5235  88.5482 14.98347984 67089
STARLINK-34003          
1 63882U 25094U   26201.45420280  .00018760  00000+0  40185-3 0  9995
2 63882  70.0002 206.6391 0003576 271.5442  88.5332 15.44775484 68418
STARLINK-33968          
1 63883U 25094V   26201.44060340  .00002525  00000+0  21933-3 0  9994
2 63883  69.9998 259.9177 0003967 266.4939  93.5767 14.98336247 67089
STARLINK-33943          
1 63884U 25094W   26201.44875939  .00002300  00000+0  20046-3 0  9998
2 63884  70.0000 259.5480 0004004 266.1274  93.9428 14.98335964 67096
STARLINK-33858          
1 63885U 25094X   26201.40704275  .00001645  00000+0  14558-3 0  9991
2 63885  69.9997 259.8002 0003924 267.9663  92.1046 14.98336153 67080
STARLINK-33885          
1 63886U 25094Y   26201.45710671  .00002266  00000+0  19761-3 0  9995
2 63886  69.9996 259.5720 0003963 268.0534  92.0171 14.98336995 67099
STARLINK-33904          
1 63887U 25094Z   26201.38634117  .00001711  00000+0  15112-3 0  9998
2 63887  69.9999 259.7269 0003415 268.6475  91.4293 14.98334174 67089
STARLINK-33981          
1 63888U 25094AA  26201.35716148  .00002696  00000+0  23364-3 0  9992
2 63888  69.9994 260.0256 0003633 267.2228  92.8516 14.98334575 67076
STARLINK-33738          
1 63889U 25094AB  26201.41138183  .00001270  00000+0  11418-3 0  9991
2 63889  69.9997 259.7900 0003917 266.9619  93.1092 14.98334194 67302
STARLINK-34116          
1 63890U 25095A   26201.54009996  .00005995  00000+0  22721-3 0  9994
2 63890  42.9989 146.1152 0001171 272.0267  88.0451 15.27580383 68108
STARLINK-34123          
1 63891U 25095B   26201.22730220  .00006429  00000+0  24290-3 0  9997
2 63891  43.0023 148.0739 0000846 275.1657  84.9098 15.27584204 68059
STARLINK-33972          
1 63893U 25095D   26201.20547711  .00011145  00000+0  41378-3 0  9995
2 63893  43.0001 147.9016 0001389 266.4779  93.5914 15.27590624 68050
STARLINK-33973          
1 63894U 25095E   26201.23486084  .00004695  00000+0  18000-3 0  9992
2 63894  43.0025 147.2629 0001235 278.8076  81.2636 15.27585030 68068
STARLINK-34119          
1 63895U 25095F   26201.15420420  .00002399  00000+0  96654-4 0  9997
2 63895  42.9994 148.3756 0001126 276.0190  84.0534 15.27581040 68044
STARLINK-34143          
1 63896U 25095G   26201.19388159 -.00002395  00000+0 -77478-4 0  9995
2 63896  43.0011 147.8132 0001448 272.1479  87.9207 15.27599125 68056
STARLINK-33957          
1 63897U 25095H   26201.55037930  .00011717  00000+0  43461-3 0  9994
2 63897  42.9997 146.1923 0000728 269.8446  90.2322 15.27581190 68097
STARLINK-34120          
1 63898U 25095J   26201.55794081  .00007174  00000+0  26998-3 0  9990
2 63898  43.0019 145.3854 0000940 275.9529  84.1215 15.27576725 68119
STARLINK-34134          
1 63899U 25095K   26201.20932496  .00009148  00000+0  34150-3 0  9999
2 63899  42.9995 147.9296 0000999 269.0804  90.9933 15.27583572 68056
STARLINK-34118          
1 63900U 25095L   26201.54266809  .00004382  00000+0  16863-3 0  9993
2 63900  42.9975 146.1317 0000820 277.2720  82.8039 15.27582158 68105
STARLINK-34125          
1 63901U 25095M   26201.20160364  .00008558  00000+0  31989-3 0  9991
2 63901  43.0003 147.8706 0000998 268.3824  91.6914 15.27605312 68043
STARLINK-33955          
1 63902U 25095N   26200.97588795  .00001796  00000+0  74780-4 0  9991
2 63902  43.0016 148.7560 0001086 259.2204 100.8525 15.27581081 68010
STARLINK-34097          
1 63903U 25095P   26201.19132105  .00005879  00000+0  22297-3 0  9998
2 63903  43.0039 147.7894 0001704 262.3429  97.7229 15.27584132 68044
STARLINK-34092          
1 63904U 25095Q   26201.22087641  .00007572  00000+0  28437-3 0  9991
2 63904  43.0006 148.0161 0000666 269.6835  90.3941 15.27582850 68042
STARLINK-34114          
1 63905U 25095R   26201.22858586  .00004556  00000+0  17494-3 0  9996
2 63905  43.0016 148.0811 0001077 270.6683  89.4046 15.27586611 68040
STARLINK-33770          
1 63906U 25095S   26201.24643065  .00007536  00000+0  28305-3 0  9997
2 63906  43.0020 147.3453 0001309 269.1962  90.8740 15.27583509 68052
STARLINK-34106          
1 63907U 25095T   26201.24257302  .00003592  00000+0  14001-3 0  9999
2 63907  43.0024 147.3126 0001414 270.8482  89.2208 15.27578889 68053
STARLINK-34083          
1 63908U 25095U   26201.55167942  .00017984  00000+0  66113-3 0  9995
2 63908  43.0013 146.2011 0001536 256.9775 103.0905 15.27595953 68092
STARLINK-34066          
1 63909U 25095V   26201.21059752  .00014287  00000+0  52755-3 0  9998
2 63909  42.9965 147.9360 0000757 258.6626 101.4140 15.27588493 68049
STARLINK-34071          
1 63910U 25095W   26201.54395473  .00006116  00000+0  23159-3 0  9997
2 63910  42.9991 146.1398 0000612 266.9811  93.0971 15.27578295 68092
STARLINK-34038          
1 63911U 25095X   26201.26827263  .00007892  00000+0  29591-3 0  9992
2 63911  43.0010 147.5101 0001065 262.8422  97.2309 15.27589084 68055
